GLOBALSTAR M069         
1 31573U 07020C   26158.08565848 -.00000064  00000+0  26574-3 0  9991
2 31573  52.0043 280.7175 0002529 127.4713  43.5603 12.23470920877562
GLOBALSTAR M072         
1 31574U 07020D   26158.22636375 -.00000071  00000+0  17672-3 0  9999
2 31574  51.9907 126.7632 0001365 304.4855  69.1940 11.91658481873791
GLOBALSTAR M066         
1 32265U 07048C   26158.07292881 -.00000096  00000+0 -10347-4 0  9991
2 32265  51.9584  86.9462 0005310  22.6070 350.0566 12.30388875858981
GLOBALSTAR M079         
1 37188U 10054A   26158.22764080 -.00000094  00000+0  51836-4 0  9998
2 37188  52.0014 138.9875 0000473 358.6012  14.3901 12.62265985721296
GLOBALSTAR M074         
1 37189U 10054B   26158.25398536 -.00000097  00000+0  38789-4 0  9996
2 37189  51.9991 138.1738 0000334  45.9805 326.9280 12.62268458721909
GLOBALSTAR M076         
1 37190U 10054C   26158.20120448 -.00000101  00000+0  15058-4 0  9998
2 37190  52.0004 138.5364 0000514  29.4748 343.7845 12.62261818721615
GLOBALSTAR M077         
1 37191U 10054D   26157.41232146 -.00000081  00000+0 -57774-4 0  9999
2 37191  51.9935 206.6453 0002915 153.1974 231.7362 11.67547621719885
GLOBALSTAR M075         
1 37192U 10054E   26157.77412868 -.00000113  00000+0 -53947-4 0  9994
2 37192  51.9921 181.8990 0000088 158.0266  13.2732 12.62267316720622
GLOBALSTAR M073         
1 37193U 10054F   26158.13548970 -.00000091  00000+0  73205-4 0  9993
2 37193  52.0056  94.8888 0000720  27.4512 345.4326 12.62262146722660
GLOBALSTAR M083         
1 37739U 11033A   26157.47103065 -.00000091  00000+0  70736-4 0  9991
2 37739  51.9872  45.1551 0000798  50.1115 123.3031 12.62262908691592
GLOBALSTAR M088         
1 37740U 11033B   26158.15717221 -.00000088  00000+0  87026-4 0  9990
2 37740  52.0229 309.4709 0000852 111.0502  60.0236 12.62268531687228
GLOBALSTAR M091         
1 37741U 11033C   26158.09100306 -.00000084  00000+0  10810-3 0  9996
2 37741  52.0005 272.6520 0000533 132.3652  38.9840 12.62263708688004
GLOBALSTAR M085         
1 37742U 11033D   26156.96925399 -.00000087  00000+0  93746-4 0  9991
2 37742  52.0117 227.3498 0000250 171.4713   0.1065 12.62263874688372
GLOBALSTAR M081         
1 37743U 11033E   26157.53596262 -.00000087  00000+0  94016-4 0  9990
2 37743  51.9947 228.0736 0000313 127.8699 339.7375 12.62264843688599
GLOBALSTAR M089         
1 37744U 11033F   26157.82689404 -.00000100  00000+0  18514-4 0  9999
2 37744  51.9904 181.3483 0000389 105.0738  65.9966 12.62266978689471
GLOBALSTAR M084         
1 38040U 11080A   26157.96355635 -.00000099  00000+0  28519-4 0  9995
2 38040  52.0025  48.4061 0001004  70.8772 301.4593 12.62267437667475
GLOBALSTAR M080         
1 38041U 11080B   26158.01425038 -.00000084  00000+0  10777-3 0  9998
2 38041  52.0074  49.9662 0000257  68.1629 304.6360 12.62269307667603
GLOBALSTAR M082         
1 38042U 11080C   26158.30198177 -.00000092  00000+0  64353-4 0  9991
2 38042  52.0099   4.5907 0000542  84.8749  86.2047 12.62269877668344
GLOBALSTAR M092         
1 38043U 11080D   26158.08267324 -.00000098  00000+0  32257-4 0  9992
2 38043  52.0080  95.6538 0000504  49.6801 323.3381 12.62266754666774
GLOBALSTAR M090         
1 38044U 11080E   26158.32868891 -.00000096  00000+0  43176-4 0  9996
2 38044  52.0144 358.4622 0000799  79.7608  91.6749 12.62268935668469
GLOBALSTAR M086         
1 38045U 11080F   26158.27139591 -.00000089  00000+0  81021-4 0  9992
2 38045  51.9918 358.5828 0001621  51.2575 120.0134 12.62286518668405
GLOBALSTAR M097         
1 39072U 13005A   26158.02716480 -.00000078  00000+0  14121-3 0  9997
2 39072  52.0060 274.2639 0000477 120.9272 239.1642 12.62247287615628
GLOBALSTAR M093         
1 39073U 13005B   26158.00052753 -.00000083  00000+0  11356-3 0  9995
2 39073  52.0112 267.6879 0000337 107.0799 253.0105 12.62265677615570
GLOBALSTAR M094         
1 39074U 13005C   26158.31718859 -.00000102  00000+0  10824-4 0  9998
2 39074  51.9930 180.8511 0000166 325.7615  34.3241 12.62268522617229
GLOBALSTAR M096         
1 39075U 13005D   26157.93471683 -.00000090  00000+0  79096-4 0  9999
2 39075  52.0064 230.8093 0000222 154.5582 205.5296 12.62265406616099
GLOBALSTAR M078         
1 39076U 13005E   26158.14523683 -.00000121  00000+0 -95424-4 0  9991
2 39076  51.9892 314.1897 0000651 191.4164 168.6688 12.62259796614746
GLOBALSTAR M095         
1 39077U 13005F   26158.17201622 -.00000091  00000+0  72705-4 0  9993
2 39077  52.0095 311.6986 0000400 120.5554 239.5352 12.62263339614602
GLOBALSTAR M087         
1 52888U 22064A   26158.10611943 -.00000089  00000+0  81856-4 0  9991
2 52888  51.9993  93.1429 0000541  16.3837 343.7047 12.62268890189869
